[
    {
        "EPOCH": "2021-06-16 13:15:40",
        "EPOCH_MICROSECONDS": "215456",
        "TLE_LINE0": "0 PAINANI 1",
        "TLE_LINE1": "1 44365U 19037A   21167.55254879  .00004259  00000-0  10830-3 0  9999",
        "TLE_LINE2": "2 44365  45.0048 262.8093 0005602 218.9762 141.0723 15.41265196110632"
    },
    {
        "EPOCH": "2021-06-16 13:15:40",
        "EPOCH_MICROSECONDS": "215456",
        "TLE_LINE0": "0 PAINANI 1",
        "TLE_LINE1": "1 44365U 19037A   21167.55254879  .00004259  00000-0  10830-3 0  9999",
        "TLE_LINE2": "2 44365  45.0048 262.8093 0005602 218.9762 141.0723 15.41265196110632"
    },
    {
        "EPOCH": "2021-06-17 12:35:37",
        "EPOCH_MICROSECONDS": "229280",
        "TLE_LINE0": "0 PAINANI 1",
        "TLE_LINE1": "1 44365U 19037A   21168.52473645  .00004969  00000-0  12495-3 0  9998",
        "TLE_LINE2": "2 44365  45.0047 257.3909 0005694 223.9828 136.0607 15.41276002110785"
    },
    {
        "EPOCH": "2021-06-18 10:22:13",
        "EPOCH_MICROSECONDS": "954944",
        "TLE_LINE0": "0 PAINANI 1",
        "TLE_LINE1": "1 44365U 19037A   21169.43210596  .00004247  00000-0  10795-3 0  9993",
        "TLE_LINE2": "2 44365  45.0047 252.3336 0005779 228.5300 131.5092 15.41283683110921"
    },
    {
        "EPOCH": "2021-06-18 13:28:53",
        "EPOCH_MICROSECONDS": "434848",
        "TLE_LINE0": "0 PAINANI 1",
        "TLE_LINE1": "1 44365U 19037A   21169.56172957  .00004407  00000-0  11171-3 0  9992",
        "TLE_LINE2": "2 44365  45.0046 251.6113 0005800 229.3770 130.6615 15.41285670110941"
    },
    {
        "EPOCH": "2021-06-19 09:42:09",
        "EPOCH_MICROSECONDS": "950976",
        "TLE_LINE0": "0 PAINANI 1",
        "TLE_LINE1": "1 44365U 19037A   21170.40428184  .00003933  00000-0  10055-3 0  9996",
        "TLE_LINE2": "2 44365  45.0047 246.9152 0005856 233.4539 126.5811 15.41292737111071"
    },
    {
        "EPOCH": "2021-06-19 14:22:09",
        "EPOCH_MICROSECONDS": "108192",
        "TLE_LINE0": "0 PAINANI 1",
        "TLE_LINE1": "1 44365U 19037A   21170.59871653  .00003804  00000-0  97529-4 0  9998",
        "TLE_LINE2": "2 44365  45.0047 245.8316 0005861 234.4146 125.6196 15.41294209111108"
    },
    {
        "EPOCH": "2021-06-20 07:28:45",
        "EPOCH_MICROSECONDS": "866208",
        "TLE_LINE0": "0 PAINANI 1",
        "TLE_LINE1": "1 44365U 19037A   21171.31164197  .00003093  00000-0  80835-4 0  9999",
        "TLE_LINE2": "2 44365  45.0047 241.8579 0005932 237.8490 122.1823 15.41298667111216"
    },
    {
        "EPOCH": "2021-06-20 07:28:45",
        "EPOCH_MICROSECONDS": "866208",
        "TLE_LINE0": "0 PAINANI 1",
        "TLE_LINE1": "1 44365U 19037A   21171.31164197  .00003093  00000-0  80835-4 0  9999",
        "TLE_LINE2": "2 44365  45.0047 241.8579 0005932 237.8490 122.1823 15.41298667111216"
    },
    {
        "EPOCH": "2021-06-21 13:01:59",
        "EPOCH_MICROSECONDS": "934720",
        "TLE_LINE0": "0 PAINANI 1",
        "TLE_LINE1": "1 44365U 19037A   21172.54305480  .00002374  00000-0  63948-4 0  9994",
        "TLE_LINE2": "2 44365  45.0045 234.9947 0005977 243.9558 116.0715 15.41305321111407"
    },
    {
        "EPOCH": "2021-06-21 13:01:59",
        "EPOCH_MICROSECONDS": "934720",
        "TLE_LINE0": "0 PAINANI 1",
        "TLE_LINE1": "1 44365U 19037A   21172.54305480  .00002374  00000-0  63948-4 0  9994",
        "TLE_LINE2": "2 44365  45.0045 234.9947 0005977 243.9558 116.0715 15.41305321111407"
    },
    {
        "EPOCH": "2021-06-22 10:48:35",
        "EPOCH_MICROSECONDS": "284896",
        "TLE_LINE0": "0 PAINANI 1",
        "TLE_LINE1": "1 44365U 19037A   21173.45040839  .00002845  00000-0  74966-4 0  9994",
        "TLE_LINE2": "2 44365  45.0045 229.9374 0006010 248.3573 111.6675 15.41311634111545"
    },
    {
        "EPOCH": "2021-06-23 13:15:09",
        "EPOCH_MICROSECONDS": "160704",
        "TLE_LINE0": "0 PAINANI 1",
        "TLE_LINE1": "1 44365U 19037A   21174.55218936  .00003430  00000-0  88669-4 0  9997",
        "TLE_LINE2": "2 44365  45.0043 223.7964 0006042 253.6203 106.4021 15.41320368111714"
    },
    {
        "EPOCH": "2021-06-24 11:01:43",
        "EPOCH_MICROSECONDS": "785984",
        "TLE_LINE0": "0 PAINANI 1",
        "TLE_LINE1": "1 44365U 19037A   21175.45953456  .00003518  00000-0  90715-4 0  9992",
        "TLE_LINE2": "2 44365  45.0041 218.7389 0006065 257.9769 102.0440 15.41326559111856"
    },
    {
        "EPOCH": "2021-06-24 11:01:43",
        "EPOCH_MICROSECONDS": "785984",
        "TLE_LINE0": "0 PAINANI 1",
        "TLE_LINE1": "1 44365U 19037A   21175.45953456  .00003518  00000-0  90715-4 0  9992",
        "TLE_LINE2": "2 44365  45.0041 218.7389 0006065 257.9769 102.0440 15.41326559111856"
    },
    {
        "EPOCH": "2021-06-25 11:54:57",
        "EPOCH_MICROSECONDS": "213792",
        "TLE_LINE0": "0 PAINANI 1",
        "TLE_LINE1": "1 44365U 19037A   21176.49649553  .00003737  00000-0  95832-4 0  9995",
        "TLE_LINE2": "2 44365  45.0035 212.9592 0006109 262.8749  97.1445 15.41334449112018"
    },
    {
        "EPOCH": "2021-06-25 11:54:57",
        "EPOCH_MICROSECONDS": "213792",
        "TLE_LINE0": "0 PAINANI 1",
        "TLE_LINE1": "1 44365U 19037A   21176.49649553  .00003737  00000-0  95832-4 0  9995",
        "TLE_LINE2": "2 44365  45.0035 212.9592 0006109 262.8749  97.1445 15.41334449112018"
    },
    {
        "EPOCH": "2021-06-26 12:48:10",
        "EPOCH_MICROSECONDS": "124928",
        "TLE_LINE0": "0 PAINANI 1",
        "TLE_LINE1": "1 44365U 19037A   21177.53345052  .00003515  00000-0  90608-4 0  9998",
        "TLE_LINE2": "2 44365  45.0033 207.1790 0006122 267.8858  92.1330 15.41342394112176"
    },
    {
        "EPOCH": "2021-06-26 19:01:28",
        "EPOCH_MICROSECONDS": "269120",
        "TLE_LINE0": "0 PAINANI 1",
        "TLE_LINE1": "1 44365U 19037A   21177.79268830  .00003510  00000-0  90484-4 0  9991",
        "TLE_LINE2": "2 44365  45.0034 205.7340 0006129 269.0638  90.9548 15.41344591112212"
    },
    {
        "EPOCH": "2021-06-26 19:01:28",
        "EPOCH_MICROSECONDS": "269120",
        "TLE_LINE0": "0 PAINANI 1",
        "TLE_LINE1": "1 44365U 19037A   21177.79268830  .00003510  00000-0  90484-4 0  9991",
        "TLE_LINE2": "2 44365  45.0034 205.7340 0006129 269.0638  90.9548 15.41344591112212"
    },
    {
        "EPOCH": "2021-06-27 12:08:02",
        "EPOCH_MICROSECONDS": "992416",
        "TLE_LINE0": "0 PAINANI 1",
        "TLE_LINE1": "1 44365U 19037A   21178.50559019  .00003658  00000-0  93918-4 0  9991",
        "TLE_LINE2": "2 44365  45.0034 201.7600 0006116 272.4611  87.5577 15.41351159112326"
    },
    {
        "EPOCH": "2021-06-27 18:21:21",
        "EPOCH_MICROSECONDS": "14784",
        "TLE_LINE0": "0 PAINANI 1",
        "TLE_LINE1": "1 44365U 19037A   21178.76482656  .00003708  00000-0  95081-4 0  9990",
        "TLE_LINE2": "2 44365  45.0034 200.3150 0006122 273.6738  86.3450 15.41353544112362"
    },
    {
        "EPOCH": "2021-06-28 02:07:58",
        "EPOCH_MICROSECONDS": "505376",
        "TLE_LINE0": "0 PAINANI 1",
        "TLE_LINE1": "1 44365U 19037A   21179.08887159  .00003812  00000-0  97505-4 0  9992",
        "TLE_LINE2": "2 44365  45.0034 198.5085 0006119 275.0997  84.9193 15.41356463112413"
    },
    {
        "EPOCH": "2021-06-28 08:21:16",
        "EPOCH_MICROSECONDS": "471584",
        "TLE_LINE0": "0 PAINANI 1",
        "TLE_LINE1": "1 44365U 19037A   21179.34810731  .00003766  00000-0  96423-4 0  9999",
        "TLE_LINE2": "2 44365  45.0034 197.0637 0006103 276.3348  83.6845 15.41358493112456"
    },
    {
        "EPOCH": "2021-06-28 17:41:13",
        "EPOCH_MICROSECONDS": "367328",
        "TLE_LINE0": "0 PAINANI 1",
        "TLE_LINE1": "1 44365U 19037A   21179.73696027  .00003844  00000-0  98249-4 0  9997",
        "TLE_LINE2": "2 44365  45.0035 194.8961 0006099 278.1879  81.8318 15.41361782112512"
    },
    {
        "EPOCH": "2021-06-29 01:27:50",
        "EPOCH_MICROSECONDS": "720544",
        "TLE_LINE0": "0 PAINANI 1",
        "TLE_LINE1": "1 44365U 19037A   21180.06100371  .00004072  00000-0  10357-3 0  9994",
        "TLE_LINE2": "2 44365  45.0035 193.0896 0006092 279.6296  80.3904 15.41364862112564"
    },
    {
        "EPOCH": "2021-06-29 09:14:28",
        "EPOCH_MICROSECONDS": "62528",
        "TLE_LINE0": "0 PAINANI 1",
        "TLE_LINE1": "1 44365U 19037A   21180.38504702  .00004252  00000-0  10778-3 0  9992",
        "TLE_LINE2": "2 44365  45.0035 191.2835 0006072 281.2029  78.8177 15.41367592112611"
    },
    {
        "EPOCH": "2021-06-29 10:47:47",
        "EPOCH_MICROSECONDS": "518656",
        "TLE_LINE0": "0 PAINANI 1",
        "TLE_LINE1": "1 44365U 19037A   21180.44985554  .00004157  00000-0  10555-3 0  9994",
        "TLE_LINE2": "2 44365  45.0035 190.9222 0006068 281.5031  78.5176 15.41367910112629"
    },
    {
        "EPOCH": "2021-06-30 08:34:19",
        "EPOCH_MICROSECONDS": "710912",
        "TLE_LINE0": "0 PAINANI 1",
        "TLE_LINE1": "1 44365U 19037A   21181.35717258  .00004385  00000-0  11087-3 0  9993",
        "TLE_LINE2": "2 44365  45.0037 185.8646 0006036 285.7061  74.3161 15.41375747112768"
    },
    {
        "EPOCH": "2021-07-01 01:40:53",
        "EPOCH_MICROSECONDS": "222016",
        "TLE_LINE0": "0 PAINANI 1",
        "TLE_LINE1": "1 44365U 19037A   21182.07006044  .00005717  00000-0  14198-3 0  9993",
        "TLE_LINE2": "2 44365  45.0037 181.8905 0006011 288.9196  71.1040 15.41385481112878"
    },
    {
        "EPOCH": "2021-07-01 11:00:49",
        "EPOCH_MICROSECONDS": "536288",
        "TLE_LINE0": "0 PAINANI 1",
        "TLE_LINE1": "1 44365U 19037A   21182.45890667  .00005917  00000-0  14664-3 0  9997",
        "TLE_LINE2": "2 44365  45.0038 179.7231 0005994 290.8205  69.2041 15.41390056112939"
    }
]